[{"OBJECT_NAME":"LEMUR-2-DEMBITZ","OBJECT_ID":"2017-042T","EPOCH":"2026-03-09T11:23:53.232288","MEAN_MOTION":15.26947128,"ECCENTRICITY":0.00069617,"INCLINATION":97.3807,"RA_OF_ASC_NODE":250.9241,"ARG_OF_PERICENTER":17.1421,"MEAN_ANOMALY":343.0051,"EPHEMERIS_TYPE":0,"CLASSIFICATION_TYPE":"U","NORAD_CAT_ID":42842,"ELEMENT_SET_NO":999,"REV_AT_EPOCH":47311,"BSTAR":0.00076560825,"MEAN_MOTION_DOT":0.00020231,"MEAN_MOTION_DDOT":0},{"OBJECT_NAME":"STARLINK-31942","OBJECT_ID":"2024-100Q","EPOCH":"2026-03-08T05:14:21.132096","MEAN_MOTION":15.27567948,"ECCENTRICITY":9.929e-5,"INCLINATION":42.9999,"RA_OF_ASC_NODE":133.5544,"ARG_OF_PERICENTER":280.9043,"MEAN_ANOMALY":79.1696,"EPHEMERIS_TYPE":0,"CLASSIFICATION_TYPE":"U","NORAD_CAT_ID":59899,"ELEMENT_SET_NO":999,"REV_AT_EPOCH":10092,"BSTAR":-2.3153262e-5,"MEAN_MOTION_DOT":-8.99e-6,"MEAN_MOTION_DDOT":0}]
